KUIPER-00089            
1 64834U 25151U   25307.93226064  .00004460  00000+0  50194-3 0  9993
2 64834  51.8968 121.6509 0002015 215.2137 144.8696 14.88367545 16890
KUIPER-00090            
1 64835U 25151V   25308.20382219  .00011583  00000+0  67085-3 0  9991
2 64835  51.8902 115.2230 0004273 247.1474 112.9051 15.12621716 17001
KUIPER-00091            
1 64836U 25151W   25308.33336806 -.00019845  00000+0 -20190-2 0  9993
2 64836  51.8926 117.6175 0007765 236.5063 359.1220 14.89958477  3601
KUIPER-00092            
1 64837U 25151X   25307.92535716  .00003412  00000+0  46945-3 0  9997
2 64837  51.9000 126.6742 0006586 179.1952 180.9022 14.80560012 18033
KUIPER-00093            
1 64838U 25151Y   25307.92605994  .00003772  00000+0  52260-3 0  9990
2 64838  51.8977 129.2033 0013952 189.9535 170.1153 14.79975603 16789
KUIPER-00094            
1 64839U 25151Z   25308.18924041  .00009614  00000+0  71099-3 0  9999
2 64839  51.8868 119.4253 0006013 207.7769 152.2883 15.03763515 16946
KUIPER-00081            
1 65132U 25171A   25307.85982156  .00060249  00000+0  15616-2 0  9995
2 65132  51.8767 357.2061 0005854  53.5893 306.5634 15.38433267 14220
KUIPER-00088            
1 65133U 25171B   25308.33336806 -.00033946  00000+0 -31333-2 0  9995
2 65133  51.8950   0.4904 0007482  57.1079 181.7787 14.94100802  5053
