<?xml version="1.0" encoding="UTF-8"?>
<ndm xmlns:xsi="http://www.w3.org/2001/XMLSchema-instance" xsi:noNamespaceSchemaLocation="https://sanaregistry.org/r/ndmxml_unqualified/ndmxml-2.0.0-master-2.0.xsd">
<omm id="CCSDS_OMM_VERS" version="2.0">
<header><CREATION_DATE/><ORIGINATOR/></header><body><segment><metadata><OBJECT_NAME>KUIPER-00089</OBJECT_NAME><OBJECT_ID>2025-151U</OBJECT_ID><CENTER_NAME>EARTH</CENTER_NAME><REF_FRAME>TEME</REF_FRAME><TIME_SYSTEM>UTC</TIME_SYSTEM><MEAN_ELEMENT_THEORY>SGP4</MEAN_ELEMENT_THEORY></metadata><data><meanElements><EPOCH>2025-11-03T22:22:27.319296</EPOCH><MEAN_MOTION>14.88367545</MEAN_MOTION><ECCENTRICITY>.0002015</ECCENTRICITY><INCLINATION>51.8968</INCLINATION><RA_OF_ASC_NODE>121.6509</RA_OF_ASC_NODE><ARG_OF_PERICENTER>215.2137</ARG_OF_PERICENTER><MEAN_ANOMALY>144.8696</MEAN_ANOMALY></meanElements><tleParameters><EPHEMERIS_TYPE>0</EPHEMERIS_TYPE><CLASSIFICATION_TYPE>U</CLASSIFICATION_TYPE><NORAD_CAT_ID>64834</NORAD_CAT_ID><ELEMENT_SET_NO>999</ELEMENT_SET_NO><REV_AT_EPOCH>1689</REV_AT_EPOCH><BSTAR>.50194E-3</BSTAR><MEAN_MOTION_DOT>.446E-4</MEAN_MOTION_DOT><MEAN_MOTION_DDOT>0</MEAN_MOTION_DDOT></tleParameters></data></segment></body></omm>
<omm id="CCSDS_OMM_VERS" version="2.0">
<header><CREATION_DATE/><ORIGINATOR/></header><body><segment><metadata><OBJECT_NAME>KUIPER-00090</OBJECT_NAME><OBJECT_ID>2025-151V</OBJECT_ID><CENTER_NAME>EARTH</CENTER_NAME><REF_FRAME>TEME</REF_FRAME><TIME_SYSTEM>UTC</TIME_SYSTEM><MEAN_ELEMENT_THEORY>SGP4</MEAN_ELEMENT_THEORY></metadata><data><meanElements><EPOCH>2025-11-04T04:53:30.237216</EPOCH><MEAN_MOTION>15.12621716</MEAN_MOTION><ECCENTRICITY>.00042735</ECCENTRICITY><INCLINATION>51.8902</INCLINATION><RA_OF_ASC_NODE>115.2230</RA_OF_ASC_NODE><ARG_OF_PERICENTER>247.1474</ARG_OF_PERICENTER><MEAN_ANOMALY>112.9051</MEAN_ANOMALY></meanElements><tleParameters><EPHEMERIS_TYPE>0</EPHEMERIS_TYPE><CLASSIFICATION_TYPE>U</CLASSIFICATION_TYPE><NORAD_CAT_ID>64835</NORAD_CAT_ID><ELEMENT_SET_NO>999</ELEMENT_SET_NO><REV_AT_EPOCH>1700</REV_AT_EPOCH><BSTAR>.67084547E-3</BSTAR><MEAN_MOTION_DOT>.11583E-3</MEAN_MOTION_DOT><MEAN_MOTION_DDOT>0</MEAN_MOTION_DDOT></tleParameters></data></segment></body></omm>
<omm id="CCSDS_OMM_VERS" version="2.0">
<header><CREATION_DATE/><ORIGINATOR/></header><body><segment><metadata><OBJECT_NAME>KUIPER-00091</OBJECT_NAME><OBJECT_ID>2025-151W</OBJECT_ID><CENTER_NAME>EARTH</CENTER_NAME><REF_FRAME>TEME</REF_FRAME><TIME_SYSTEM>UTC</TIME_SYSTEM><MEAN_ELEMENT_THEORY>SGP4</MEAN_ELEMENT_THEORY></metadata><data><meanElements><EPOCH>2025-11-04T08:00:03.000384</EPOCH><MEAN_MOTION>14.89958477</MEAN_MOTION><ECCENTRICITY>.00077655</ECCENTRICITY><INCLINATION>51.8926</INCLINATION><RA_OF_ASC_NODE>117.6175</RA_OF_ASC_NODE><ARG_OF_PERICENTER>236.5063</ARG_OF_PERICENTER><MEAN_ANOMALY>359.1220</MEAN_ANOMALY></meanElements><tleParameters><EPHEMERIS_TYPE>0</EPHEMERIS_TYPE><CLASSIFICATION_TYPE>U</CLASSIFICATION_TYPE><NORAD_CAT_ID>64836</NORAD_CAT_ID><ELEMENT_SET_NO>999</ELEMENT_SET_NO><REV_AT_EPOCH>360</REV_AT_EPOCH><BSTAR>-.20189666E-2</BSTAR><MEAN_MOTION_DOT>-.19845E-3</MEAN_MOTION_DOT><MEAN_MOTION_DDOT>0</MEAN_MOTION_DDOT></tleParameters></data></segment></body></omm>
<omm id="CCSDS_OMM_VERS" version="2.0">
<header><CREATION_DATE/><ORIGINATOR/></header><body><segment><metadata><OBJECT_NAME>KUIPER-00092</OBJECT_NAME><OBJECT_ID>2025-151X</OBJECT_ID><CENTER_NAME>EARTH</CENTER_NAME><REF_FRAME>TEME</REF_FRAME><TIME_SYSTEM>UTC</TIME_SYSTEM><MEAN_ELEMENT_THEORY>SGP4</MEAN_ELEMENT_THEORY></metadata><data><meanElements><EPOCH>2025-11-03T22:12:30.858624</EPOCH><MEAN_MOTION>14.80560012</MEAN_MOTION><ECCENTRICITY>.0006586</ECCENTRICITY><INCLINATION>51.9000</INCLINATION><RA_OF_ASC_NODE>126.6742</RA_OF_ASC_NODE><ARG_OF_PERICENTER>179.1952</ARG_OF_PERICENTER><MEAN_ANOMALY>180.9022</MEAN_ANOMALY></meanElements><tleParameters><EPHEMERIS_TYPE>0</EPHEMERIS_TYPE><CLASSIFICATION_TYPE>U</CLASSIFICATION_TYPE><NORAD_CAT_ID>64837</NORAD_CAT_ID><ELEMENT_SET_NO>999</ELEMENT_SET_NO><REV_AT_EPOCH>1803</REV_AT_EPOCH><BSTAR>.46945E-3</BSTAR><MEAN_MOTION_DOT>.3412E-4</MEAN_MOTION_DOT><MEAN_MOTION_DDOT>0</MEAN_MOTION_DDOT></tleParameters></data></segment></body></omm>
<omm id="CCSDS_OMM_VERS" version="2.0">
<header><CREATION_DATE/><ORIGINATOR/></header><body><segment><metadata><OBJECT_NAME>KUIPER-00093</OBJECT_NAME><OBJECT_ID>2025-151Y</OBJECT_ID><CENTER_NAME>EARTH</CENTER_NAME><REF_FRAME>TEME</REF_FRAME><TIME_SYSTEM>UTC</TIME_SYSTEM><MEAN_ELEMENT_THEORY>SGP4</MEAN_ELEMENT_THEORY></metadata><data><meanElements><EPOCH>2025-11-03T22:13:31.578816</EPOCH><MEAN_MOTION>14.79975603</MEAN_MOTION><ECCENTRICITY>.0013952</ECCENTRICITY><INCLINATION>51.8977</INCLINATION><RA_OF_ASC_NODE>129.2033</RA_OF_ASC_NODE><ARG_OF_PERICENTER>189.9535</ARG_OF_PERICENTER><MEAN_ANOMALY>170.1153</MEAN_ANOMALY></meanElements><tleParameters><EPHEMERIS_TYPE>0</EPHEMERIS_TYPE><CLASSIFICATION_TYPE>U</CLASSIFICATION_TYPE><NORAD_CAT_ID>64838</NORAD_CAT_ID><ELEMENT_SET_NO>999</ELEMENT_SET_NO><REV_AT_EPOCH>1678</REV_AT_EPOCH><BSTAR>.5226E-3</BSTAR><MEAN_MOTION_DOT>.3772E-4</MEAN_MOTION_DOT><MEAN_MOTION_DDOT>0</MEAN_MOTION_DDOT></tleParameters></data></segment></body></omm>
<omm id="CCSDS_OMM_VERS" version="2.0">
<header><CREATION_DATE/><ORIGINATOR/></header><body><segment><metadata><OBJECT_NAME>KUIPER-00094</OBJECT_NAME><OBJECT_ID>2025-151Z</OBJECT_ID><CENTER_NAME>EARTH</CENTER_NAME><REF_FRAME>TEME</REF_FRAME><TIME_SYSTEM>UTC</TIME_SYSTEM><MEAN_ELEMENT_THEORY>SGP4</MEAN_ELEMENT_THEORY></metadata><data><meanElements><EPOCH>2025-11-04T04:32:30.371424</EPOCH><MEAN_MOTION>15.03763515</MEAN_MOTION><ECCENTRICITY>.00060135</ECCENTRICITY><INCLINATION>51.8868</INCLINATION><RA_OF_ASC_NODE>119.4253</RA_OF_ASC_NODE><ARG_OF_PERICENTER>207.7769</ARG_OF_PERICENTER><MEAN_ANOMALY>152.2883</MEAN_ANOMALY></meanElements><tleParameters><EPHEMERIS_TYPE>0</EPHEMERIS_TYPE><CLASSIFICATION_TYPE>U</CLASSIFICATION_TYPE><NORAD_CAT_ID>64839</NORAD_CAT_ID><ELEMENT_SET_NO>999</ELEMENT_SET_NO><REV_AT_EPOCH>1694</REV_AT_EPOCH><BSTAR>.71099364E-3</BSTAR><MEAN_MOTION_DOT>.9614E-4</MEAN_MOTION_DOT><MEAN_MOTION_DDOT>0</MEAN_MOTION_DDOT></tleParameters></data></segment></body></omm>
<omm id="CCSDS_OMM_VERS" version="2.0">
<header><CREATION_DATE/><ORIGINATOR/></header><body><segment><metadata><OBJECT_NAME>KUIPER-00081</OBJECT_NAME><OBJECT_ID>2025-171A</OBJECT_ID><CENTER_NAME>EARTH</CENTER_NAME><REF_FRAME>TEME</REF_FRAME><TIME_SYSTEM>UTC</TIME_SYSTEM><MEAN_ELEMENT_THEORY>SGP4</MEAN_ELEMENT_THEORY></metadata><data><meanElements><EPOCH>2025-11-03T20:38:08.582784</EPOCH><MEAN_MOTION>15.38433267</MEAN_MOTION><ECCENTRICITY>.0005854</ECCENTRICITY><INCLINATION>51.8767</INCLINATION><RA_OF_ASC_NODE>357.2061</RA_OF_ASC_NODE><ARG_OF_PERICENTER>53.5893</ARG_OF_PERICENTER><MEAN_ANOMALY>306.5634</MEAN_ANOMALY></meanElements><tleParameters><EPHEMERIS_TYPE>0</EPHEMERIS_TYPE><CLASSIFICATION_TYPE>U</CLASSIFICATION_TYPE><NORAD_CAT_ID>65132</NORAD_CAT_ID><ELEMENT_SET_NO>999</ELEMENT_SET_NO><REV_AT_EPOCH>1422</REV_AT_EPOCH><BSTAR>.15616E-2</BSTAR><MEAN_MOTION_DOT>.60249E-3</MEAN_MOTION_DOT><MEAN_MOTION_DDOT>0</MEAN_MOTION_DDOT></tleParameters></data></segment></body></omm>
<omm id="CCSDS_OMM_VERS" version="2.0">
<header><CREATION_DATE/><ORIGINATOR/></header><body><segment><metadata><OBJECT_NAME>KUIPER-00088</OBJECT_NAME><OBJECT_ID>2025-171B</OBJECT_ID><CENTER_NAME>EARTH</CENTER_NAME><REF_FRAME>TEME</REF_FRAME><TIME_SYSTEM>UTC</TIME_SYSTEM><MEAN_ELEMENT_THEORY>SGP4</MEAN_ELEMENT_THEORY></metadata><data><meanElements><EPOCH>2025-11-04T08:00:03.000384</EPOCH><MEAN_MOTION>14.94100802</MEAN_MOTION><ECCENTRICITY>.00074821</ECCENTRICITY><INCLINATION>51.8950</INCLINATION><RA_OF_ASC_NODE>0.4904</RA_OF_ASC_NODE><ARG_OF_PERICENTER>57.1079</ARG_OF_PERICENTER><MEAN_ANOMALY>181.7787</MEAN_ANOMALY></meanElements><tleParameters><EPHEMERIS_TYPE>0</EPHEMERIS_TYPE><CLASSIFICATION_TYPE>U</CLASSIFICATION_TYPE><NORAD_CAT_ID>65133</NORAD_CAT_ID><ELEMENT_SET_NO>999</ELEMENT_SET_NO><REV_AT_EPOCH>505</REV_AT_EPOCH><BSTAR>-.31332673E-2</BSTAR><MEAN_MOTION_DOT>-.33946E-3</MEAN_MOTION_DOT><MEAN_MOTION_DDOT>0</MEAN_MOTION_DDOT></tleParameters></data></segment></body></omm>

</ndm>
